[{"OBJECT_NAME":"STARLINK-5742","OBJECT_ID":"2023-020Q","EPOCH":"2026-03-09T22:00:01.999584","MEAN_MOTION":15.14945834,"ECCENTRICITY":7.796e-5,"INCLINATION":43.0014,"RA_OF_ASC_NODE":3.0271,"ARG_OF_PERICENTER":260.1747,"MEAN_ANOMALY":254.0226,"EPHEMERIS_TYPE":0,"CLASSIFICATION_TYPE":"U","NORAD_CAT_ID":55583,"ELEMENT_SET_NO":999,"REV_AT_EPOCH":577,"BSTAR":0.063095573,"MEAN_MOTION_DOT":0.01298259,"MEAN_MOTION_DDOT":0},{"OBJECT_NAME":"OBJECT F","OBJECT_ID":"2023-117F","EPOCH":"2026-03-09T23:45:20.035008","MEAN_MOTION":15.41025993,"ECCENTRICITY":0.00065686,"INCLINATION":97.4221,"RA_OF_ASC_NODE":153.1822,"ARG_OF_PERICENTER":211.9829,"MEAN_ANOMALY":148.1019,"EPHEMERIS_TYPE":0,"CLASSIFICATION_TYPE":"U","NORAD_CAT_ID":57585,"ELEMENT_SET_NO":999,"REV_AT_EPOCH":14355,"BSTAR":0.00063988304,"MEAN_MOTION_DOT":0.00026397,"MEAN_MOTION_DDOT":0}]
